{
"type": "FeatureCollection",
"name": "usmin_ontriballands",
"crs": { "type": "name", "properties": { "name": "urn:ogc:def:crs:EPSG::2226" } },
"features": [
{ "type": "Feature", "properties": { "OBJECTID": 1, "FID_USMINPoints_Project": 854, "Name": "San Xavier North Mine", "FolderPath": "USMIN deposit database", "SymbolID": 0, "AltMode": -1, "Base": 0.0, "Snippet": "Open Pit Mine", "PopupInfo": "<a href=\"https://mrdata.usgs.gov/deposit/html/Re-Mf00265\">San Xavier North Mine</a>: Open Pit Mine<table><tr><td>Feature group</td><td>Mine Feature</td></tr><tr><td>Location</td><td>Pima, AZ</td></tr><tr><td>Commodity</td><td>copper; molybdenum; silver</td></tr></table>", "HasLabel": -1, "LabelID": 0, "FID_L0Federally_Recognized_Tribal_Lands": 87, "AIANNH": "4200", "FSRFLG": "F", "AIANNHNS": "00023763", "AREALAND": 11535075609.0, "ALANDHIST": 11535075609.0, "AREAWATER": 883039.0, "AWATERHIST": 883039.0, "AIANNHCC": "D1", "EFFDATE": null, "ESTABDATE": null, "FUNCSTAT": "A", "GCFLG": null, "GEOID": "4200M", "LSADC": "86", "MTFCC": "G2100", "BASENAME": "Tohono O'odham Nation", "NAME_1": "Tohono O'odham Nation Reservation and Off-Reservation Trust Land", "ObjID": "251901230456558", "AIANNHCOMP": "M", "STATEFP1": "0473950", "STATEFP2": null, "STATEFP3": null, "UR": null, "VINTAGE": "90", "AIANNHFP1": "04-73950", "AIANNHFP2": null, "AIANNHFP3": null, "HU100": null, "POP100": null, "CENTLAT": "+32.1502060", "CENTLON": "-112.0448619", "INTPTLAT": "+32.1500358", "INTPTLON": "-112.0704020", "STGEOMETRY_AREA": 16140873956.8624, "STGEOMETRY_LEN": 833921.75749800005 }, "geometry": { "type": "Point", "coordinates": [ 9961997.081695139408112, -213417.483271777629852, 0.0 ] } },
{ "type": "Feature", "properties": { "OBJECTID": 2, "FID_USMINPoints_Project": 968, "Name": "San Xavier North Mine", "FolderPath": "USMIN deposit database", "SymbolID": 0, "AltMode": -1, "Base": 0.0, "Snippet": "Open Pit Mine", "PopupInfo": "<a href=\"https://mrdata.usgs.gov/deposit/html/Re-Mf00265\">San Xavier North Mine</a>: Open Pit Mine<table><tr><td>Feature group</td><td>Mine Feature</td></tr><tr><td>Location</td><td>Pima, AZ</td></tr><tr><td>Commodity</td><td>copper; molybdenum; silver</td></tr></table>", "HasLabel": -1, "LabelID": 0, "FID_L0Federally_Recognized_Tribal_Lands": 87, "AIANNH": "4200", "FSRFLG": "F", "AIANNHNS": "00023763", "AREALAND": 11535075609.0, "ALANDHIST": 11535075609.0, "AREAWATER": 883039.0, "AWATERHIST": 883039.0, "AIANNHCC": "D1", "EFFDATE": null, "ESTABDATE": null, "FUNCSTAT": "A", "GCFLG": null, "GEOID": "4200M", "LSADC": "86", "MTFCC": "G2100", "BASENAME": "Tohono O'odham Nation", "NAME_1": "Tohono O'odham Nation Reservation and Off-Reservation Trust Land", "ObjID": "251901230456558", "AIANNHCOMP": "M", "STATEFP1": "0473950", "STATEFP2": null, "STATEFP3": null, "UR": null, "VINTAGE": "90", "AIANNHFP1": "04-73950", "AIANNHFP2": null, "AIANNHFP3": null, "HU100": null, "POP100": null, "CENTLAT": "+32.1502060", "CENTLON": "-112.0448619", "INTPTLAT": "+32.1500358", "INTPTLON": "-112.0704020", "STGEOMETRY_AREA": 16140873956.8624, "STGEOMETRY_LEN": 833921.75749800005 }, "geometry": { "type": "Point", "coordinates": [ 9961997.081695139408112, -213417.483271777629852, 0.0 ] } },
{ "type": "Feature", "properties": { "OBJECTID": 3, "FID_USMINPoints_Project": 469, "Name": "Pajarito District", "FolderPath": "USMIN deposit database", "SymbolID": 1, "AltMode": -1, "Base": 0.0, "Snippet": "Mining District", "PopupInfo": "<a href=\"https://mrdata.usgs.gov/deposit/html/REE-Mr00056\">Pajarito District</a>: Mining District<table><tr><td>Feature group</td><td>Mineral Region</td></tr><tr><td>Location</td><td>Otero, NM</td></tr><tr><td>Commodity</td><td>iron; zircon; rare earth elements; fluorine</td></tr></table>", "HasLabel": -1, "LabelID": 0, "FID_L0Federally_Recognized_Tribal_Lands": 189, "AIANNH": "2205", "FSRFLG": "F", "AIANNHNS": "00924240", "AREALAND": 1862762807.0, "ALANDHIST": 1862762807.0, "AREAWATER": 1469791.0, "AWATERHIST": 1469791.0, "AIANNHCC": "D2", "EFFDATE": null, "ESTABDATE": null, "FUNCSTAT": "A", "GCFLG": null, "GEOID": "2205R", "LSADC": "86", "MTFCC": "G2100", "BASENAME": "Mescalero", "NAME_1": "Mescalero Reservation", "ObjID": "251901364286435", "AIANNHCOMP": "R", "STATEFP1": "3547990", "STATEFP2": null, "STATEFP3": null, "UR": null, "VINTAGE": "90", "AIANNHFP1": "35-47990", "AIANNHFP2": null, "AIANNHFP3": null, "HU100": null, "POP100": null, "CENTLAT": "+33.1784871", "CENTLON": "-105.6118360", "INTPTLAT": "+33.1761346", "INTPTLON": "-105.5832417", "STGEOMETRY_AREA": 2668434255.8717299, "STGEOMETRY_LEN": 245243.03593504001 }, "geometry": { "type": "Point", "coordinates": [ 11628939.87083438038826, 482849.06152831017971, 0.0 ] } },
{ "type": "Feature", "properties": { "OBJECTID": 4, "FID_USMINPoints_Project": 736, "Name": "Pajarito District", "FolderPath": "USMIN deposit database", "SymbolID": 1, "AltMode": -1, "Base": 0.0, "Snippet": "Mining District", "PopupInfo": "<a href=\"https://mrdata.usgs.gov/deposit/html/REE-Mr00056\">Pajarito District</a>: Mining District<table><tr><td>Feature group</td><td>Mineral Region</td></tr><tr><td>Location</td><td>Otero, NM</td></tr><tr><td>Commodity</td><td>iron; zircon; rare earth elements; fluorine</td></tr></table>", "HasLabel": -1, "LabelID": 0, "FID_L0Federally_Recognized_Tribal_Lands": 189, "AIANNH": "2205", "FSRFLG": "F", "AIANNHNS": "00924240", "AREALAND": 1862762807.0, "ALANDHIST": 1862762807.0, "AREAWATER": 1469791.0, "AWATERHIST": 1469791.0, "AIANNHCC": "D2", "EFFDATE": null, "ESTABDATE": null, "FUNCSTAT": "A", "GCFLG": null, "GEOID": "2205R", "LSADC": "86", "MTFCC": "G2100", "BASENAME": "Mescalero", "NAME_1": "Mescalero Reservation", "ObjID": "251901364286435", "AIANNHCOMP": "R", "STATEFP1": "3547990", "STATEFP2": null, "STATEFP3": null, "UR": null, "VINTAGE": "90", "AIANNHFP1": "35-47990", "AIANNHFP2": null, "AIANNHFP3": null, "HU100": null, "POP100": null, "CENTLAT": "+33.1784871", "CENTLON": "-105.6118360", "INTPTLAT": "+33.1761346", "INTPTLON": "-105.5832417", "STGEOMETRY_AREA": 2668434255.8717299, "STGEOMETRY_LEN": 245243.03593504001 }, "geometry": { "type": "Point", "coordinates": [ 11628939.87083438038826, 482849.06152831017971, 0.0 ] } },
{ "type": "Feature", "properties": { "OBJECTID": 5, "FID_USMINPoints_Project": 457, "Name": "Pajarito Mountain, Pajarito Mountain Deposit", "FolderPath": "USMIN deposit database", "SymbolID": 0, "AltMode": -1, "Base": 0.0, "Snippet": "Deposit", "PopupInfo": "<a href=\"https://mrdata.usgs.gov/deposit/html/REE-Mo00276\">Pajarito Mountain, Pajarito Mountain Deposit</a>: Deposit<table><tr><td>Feature group</td><td>Mineral Occurrence</td></tr><tr><td>Location</td><td>Otero, NM</td></tr><tr><td>Commodity</td><td>zirconium; rare earth elements</td></tr></table>", "HasLabel": -1, "LabelID": 0, "FID_L0Federally_Recognized_Tribal_Lands": 189, "AIANNH": "2205", "FSRFLG": "F", "AIANNHNS": "00924240", "AREALAND": 1862762807.0, "ALANDHIST": 1862762807.0, "AREAWATER": 1469791.0, "AWATERHIST": 1469791.0, "AIANNHCC": "D2", "EFFDATE": null, "ESTABDATE": null, "FUNCSTAT": "A", "GCFLG": null, "GEOID": "2205R", "LSADC": "86", "MTFCC": "G2100", "BASENAME": "Mescalero", "NAME_1": "Mescalero Reservation", "ObjID": "251901364286435", "AIANNHCOMP": "R", "STATEFP1": "3547990", "STATEFP2": null, "STATEFP3": null, "UR": null, "VINTAGE": "90", "AIANNHFP1": "35-47990", "AIANNHFP2": null, "AIANNHFP3": null, "HU100": null, "POP100": null, "CENTLAT": "+33.1784871", "CENTLON": "-105.6118360", "INTPTLAT": "+33.1761346", "INTPTLON": "-105.5832417", "STGEOMETRY_AREA": 2668434255.8717299, "STGEOMETRY_LEN": 245243.03593504001 }, "geometry": { "type": "Point", "coordinates": [ 11627469.696281298995018, 487928.871906727552414, 0.0 ] } },
{ "type": "Feature", "properties": { "OBJECTID": 6, "FID_USMINPoints_Project": 724, "Name": "Pajarito Mountain, Pajarito Mountain Deposit", "FolderPath": "USMIN deposit database", "SymbolID": 0, "AltMode": -1, "Base": 0.0, "Snippet": "Deposit", "PopupInfo": "<a href=\"https://mrdata.usgs.gov/deposit/html/REE-Mo00276\">Pajarito Mountain, Pajarito Mountain Deposit</a>: Deposit<table><tr><td>Feature group</td><td>Mineral Occurrence</td></tr><tr><td>Location</td><td>Otero, NM</td></tr><tr><td>Commodity</td><td>zirconium; rare earth elements</td></tr></table>", "HasLabel": -1, "LabelID": 0, "FID_L0Federally_Recognized_Tribal_Lands": 189, "AIANNH": "2205", "FSRFLG": "F", "AIANNHNS": "00924240", "AREALAND": 1862762807.0, "ALANDHIST": 1862762807.0, "AREAWATER": 1469791.0, "AWATERHIST": 1469791.0, "AIANNHCC": "D2", "EFFDATE": null, "ESTABDATE": null, "FUNCSTAT": "A", "GCFLG": null, "GEOID": "2205R", "LSADC": "86", "MTFCC": "G2100", "BASENAME": "Mescalero", "NAME_1": "Mescalero Reservation", "ObjID": "251901364286435", "AIANNHCOMP": "R", "STATEFP1": "3547990", "STATEFP2": null, "STATEFP3": null, "UR": null, "VINTAGE": "90", "AIANNHFP1": "35-47990", "AIANNHFP2": null, "AIANNHFP3": null, "HU100": null, "POP100": null, "CENTLAT": "+33.1784871", "CENTLON": "-105.6118360", "INTPTLAT": "+33.1761346", "INTPTLON": "-105.5832417", "STGEOMETRY_AREA": 2668434255.8717299, "STGEOMETRY_LEN": 245243.03593504001 }, "geometry": { "type": "Point", "coordinates": [ 11627469.696281298995018, 487928.871906727552414, 0.0 ] } },
{ "type": "Feature", "properties": { "OBJECTID": 7, "FID_USMINPoints_Project": 416, "Name": "Gay-South Forty, Gay-South Forty Mines", "FolderPath": "USMIN deposit database", "SymbolID": 0, "AltMode": -1, "Base": 0.0, "Snippet": "Open Pit Mine", "PopupInfo": "<a href=\"https://mrdata.usgs.gov/deposit/html/REE-Mf00431\">Gay-South Forty, Gay-South Forty Mines</a>: Open Pit Mine<table><tr><td>Feature group</td><td>Mine Feature</td></tr><tr><td>Location</td><td>Bingham, ID</td></tr><tr><td>Commodity</td><td>phosphate</td></tr></table>", "HasLabel": -1, "LabelID": 0, "FID_L0Federally_Recognized_Tribal_Lands": 215, "AIANNH": "1185", "FSRFLG": "F", "AIANNHNS": "00399059", "AREALAND": 2108680183.0, "ALANDHIST": 2108680183.0, "AREAWATER": 107357685.0, "AWATERHIST": 107357685.0, "AIANNHCC": "D1", "EFFDATE": null, "ESTABDATE": null, "FUNCSTAT": "A", "GCFLG": null, "GEOID": "1185M", "LSADC": "86", "MTFCC": "G2100", "BASENAME": "Fort Hall", "NAME_1": "Fort Hall Reservation and Off-Reservation Trust Land", "ObjID": "25190386688180", "AIANNHCOMP": "M", "STATEFP1": "1628450", "STATEFP2": null, "STATEFP3": null, "UR": null, "VINTAGE": "90", "AIANNHFP1": "16-28450", "AIANNHFP2": null, "AIANNHFP3": null, "HU100": null, "POP100": null, "CENTLAT": "+42.9644123", "CENTLON": "-112.3664805", "INTPTLAT": "+42.9681709", "INTPTLON": "-112.3648656", "STGEOMETRY_AREA": 4140382481.4812398, "STGEOMETRY_LEN": 469418.03722290002 }, "geometry": { "type": "Point", "coordinates": [ 9205863.580513715744019, 3746111.044177636504173, 0.0 ] } },
{ "type": "Feature", "properties": { "OBJECTID": 8, "FID_USMINPoints_Project": 417, "Name": "Gay-South Forty, Gay-South Forty Deposit", "FolderPath": "USMIN deposit database", "SymbolID": 0, "AltMode": -1, "Base": 0.0, "Snippet": "Deposit", "PopupInfo": "<a href=\"https://mrdata.usgs.gov/deposit/html/REE-Mo00536\">Gay-South Forty, Gay-South Forty Deposit</a>: Deposit<table><tr><td>Feature group</td><td>Mineral Occurrence</td></tr><tr><td>Location</td><td>Bingham, ID</td></tr><tr><td>Commodity</td><td>phosphate; rare earth elements</td></tr></table>", "HasLabel": -1, "LabelID": 0, "FID_L0Federally_Recognized_Tribal_Lands": 215, "AIANNH": "1185", "FSRFLG": "F", "AIANNHNS": "00399059", "AREALAND": 2108680183.0, "ALANDHIST": 2108680183.0, "AREAWATER": 107357685.0, "AWATERHIST": 107357685.0, "AIANNHCC": "D1", "EFFDATE": null, "ESTABDATE": null, "FUNCSTAT": "A", "GCFLG": null, "GEOID": "1185M", "LSADC": "86", "MTFCC": "G2100", "BASENAME": "Fort Hall", "NAME_1": "Fort Hall Reservation and Off-Reservation Trust Land", "ObjID": "25190386688180", "AIANNHCOMP": "M", "STATEFP1": "1628450", "STATEFP2": null, "STATEFP3": null, "UR": null, "VINTAGE": "90", "AIANNHFP1": "16-28450", "AIANNHFP2": null, "AIANNHFP3": null, "HU100": null, "POP100": null, "CENTLAT": "+42.9644123", "CENTLON": "-112.3664805", "INTPTLAT": "+42.9681709", "INTPTLON": "-112.3648656", "STGEOMETRY_AREA": 4140382481.4812398, "STGEOMETRY_LEN": 469418.03722290002 }, "geometry": { "type": "Point", "coordinates": [ 9205863.580513715744019, 3746111.044177636504173, 0.0 ] } },
{ "type": "Feature", "properties": { "OBJECTID": 9, "FID_USMINPoints_Project": 683, "Name": "Gay-South Forty, Gay-South Forty Mines", "FolderPath": "USMIN deposit database", "SymbolID": 0, "AltMode": -1, "Base": 0.0, "Snippet": "Open Pit Mine", "PopupInfo": "<a href=\"https://mrdata.usgs.gov/deposit/html/REE-Mf00431\">Gay-South Forty, Gay-South Forty Mines</a>: Open Pit Mine<table><tr><td>Feature group</td><td>Mine Feature</td></tr><tr><td>Location</td><td>Bingham, ID</td></tr><tr><td>Commodity</td><td>phosphate</td></tr></table>", "HasLabel": -1, "LabelID": 0, "FID_L0Federally_Recognized_Tribal_Lands": 215, "AIANNH": "1185", "FSRFLG": "F", "AIANNHNS": "00399059", "AREALAND": 2108680183.0, "ALANDHIST": 2108680183.0, "AREAWATER": 107357685.0, "AWATERHIST": 107357685.0, "AIANNHCC": "D1", "EFFDATE": null, "ESTABDATE": null, "FUNCSTAT": "A", "GCFLG": null, "GEOID": "1185M", "LSADC": "86", "MTFCC": "G2100", "BASENAME": "Fort Hall", "NAME_1": "Fort Hall Reservation and Off-Reservation Trust Land", "ObjID": "25190386688180", "AIANNHCOMP": "M", "STATEFP1": "1628450", "STATEFP2": null, "STATEFP3": null, "UR": null, "VINTAGE": "90", "AIANNHFP1": "16-28450", "AIANNHFP2": null, "AIANNHFP3": null, "HU100": null, "POP100": null, "CENTLAT": "+42.9644123", "CENTLON": "-112.3664805", "INTPTLAT": "+42.9681709", "INTPTLON": "-112.3648656", "STGEOMETRY_AREA": 4140382481.4812398, "STGEOMETRY_LEN": 469418.03722290002 }, "geometry": { "type": "Point", "coordinates": [ 9205863.580513715744019, 3746111.044177636504173, 0.0 ] } },
{ "type": "Feature", "properties": { "OBJECTID": 10, "FID_USMINPoints_Project": 684, "Name": "Gay-South Forty, Gay-South Forty Deposit", "FolderPath": "USMIN deposit database", "SymbolID": 0, "AltMode": -1, "Base": 0.0, "Snippet": "Deposit", "PopupInfo": "<a href=\"https://mrdata.usgs.gov/deposit/html/REE-Mo00536\">Gay-South Forty, Gay-South Forty Deposit</a>: Deposit<table><tr><td>Feature group</td><td>Mineral Occurrence</td></tr><tr><td>Location</td><td>Bingham, ID</td></tr><tr><td>Commodity</td><td>phosphate; rare earth elements</td></tr></table>", "HasLabel": -1, "LabelID": 0, "FID_L0Federally_Recognized_Tribal_Lands": 215, "AIANNH": "1185", "FSRFLG": "F", "AIANNHNS": "00399059", "AREALAND": 2108680183.0, "ALANDHIST": 2108680183.0, "AREAWATER": 107357685.0, "AWATERHIST": 107357685.0, "AIANNHCC": "D1", "EFFDATE": null, "ESTABDATE": null, "FUNCSTAT": "A", "GCFLG": null, "GEOID": "1185M", "LSADC": "86", "MTFCC": "G2100", "BASENAME": "Fort Hall", "NAME_1": "Fort Hall Reservation and Off-Reservation Trust Land", "ObjID": "25190386688180", "AIANNHCOMP": "M", "STATEFP1": "1628450", "STATEFP2": null, "STATEFP3": null, "UR": null, "VINTAGE": "90", "AIANNHFP1": "16-28450", "AIANNHFP2": null, "AIANNHFP3": null, "HU100": null, "POP100": null, "CENTLAT": "+42.9644123", "CENTLON": "-112.3664805", "INTPTLAT": "+42.9681709", "INTPTLON": "-112.3648656", "STGEOMETRY_AREA": 4140382481.4812398, "STGEOMETRY_LEN": 469418.03722290002 }, "geometry": { "type": "Point", "coordinates": [ 9205863.580513715744019, 3746111.044177636504173, 0.0 ] } },
{ "type": "Feature", "properties": { "OBJECTID": 11, "FID_USMINPoints_Project": 920, "Name": "Mount Tolman", "FolderPath": "USMIN deposit database", "SymbolID": 0, "AltMode": -1, "Base": 0.0, "Snippet": "Deposit", "PopupInfo": "<a href=\"https://mrdata.usgs.gov/deposit/html/Re-Mo00261\">Mount Tolman</a>: Deposit<table><tr><td>Feature group</td><td>Mineral Occurrence</td></tr><tr><td>Location</td><td>Ferry, WA</td></tr><tr><td>Commodity</td><td>rhenium; molybdenum; copper</td></tr></table>", "HasLabel": -1, "LabelID": 0, "FID_L0Federally_Recognized_Tribal_Lands": 242, "AIANNH": "0760", "FSRFLG": "F", "AIANNHNS": "01529464", "AREALAND": 5480450410.0, "ALANDHIST": 5480450410.0, "AREAWATER": 179068265.0, "AWATERHIST": 179068265.0, "AIANNHCC": "D1", "EFFDATE": null, "ESTABDATE": null, "FUNCSTAT": "A", "GCFLG": null, "GEOID": "0760M", "LSADC": "86", "MTFCC": "G2100", "BASENAME": "Colville", "NAME_1": "Colville Reservation and Off-Reservation Trust Land", "ObjID": "25190479220731", "AIANNHCOMP": "M", "STATEFP1": "5314240", "STATEFP2": null, "STATEFP3": null, "UR": null, "VINTAGE": "90", "AIANNHFP1": "53-14240", "AIANNHFP2": null, "AIANNHFP3": null, "HU100": null, "POP100": null, "CENTLAT": "+48.2297341", "CENTLON": "-118.8728003", "INTPTLAT": "+48.2439112", "INTPTLON": "-118.8719074", "STGEOMETRY_AREA": 12744397331.6133, "STGEOMETRY_LEN": 633822.29200718994 }, "geometry": { "type": "Point", "coordinates": [ 7379213.136380970478058, 5455412.900173395872116, 0.0 ] } },
{ "type": "Feature", "properties": { "OBJECTID": 12, "FID_USMINPoints_Project": 1034, "Name": "Mount Tolman", "FolderPath": "USMIN deposit database", "SymbolID": 0, "AltMode": -1, "Base": 0.0, "Snippet": "Deposit", "PopupInfo": "<a href=\"https://mrdata.usgs.gov/deposit/html/Re-Mo00261\">Mount Tolman</a>: Deposit<table><tr><td>Feature group</td><td>Mineral Occurrence</td></tr><tr><td>Location</td><td>Ferry, WA</td></tr><tr><td>Commodity</td><td>rhenium; molybdenum; copper</td></tr></table>", "HasLabel": -1, "LabelID": 0, "FID_L0Federally_Recognized_Tribal_Lands": 242, "AIANNH": "0760", "FSRFLG": "F", "AIANNHNS": "01529464", "AREALAND": 5480450410.0, "ALANDHIST": 5480450410.0, "AREAWATER": 179068265.0, "AWATERHIST": 179068265.0, "AIANNHCC": "D1", "EFFDATE": null, "ESTABDATE": null, "FUNCSTAT": "A", "GCFLG": null, "GEOID": "0760M", "LSADC": "86", "MTFCC": "G2100", "BASENAME": "Colville", "NAME_1": "Colville Reservation and Off-Reservation Trust Land", "ObjID": "25190479220731", "AIANNHCOMP": "M", "STATEFP1": "5314240", "STATEFP2": null, "STATEFP3": null, "UR": null, "VINTAGE": "90", "AIANNHFP1": "53-14240", "AIANNHFP2": null, "AIANNHFP3": null, "HU100": null, "POP100": null, "CENTLAT": "+48.2297341", "CENTLON": "-118.8728003", "INTPTLAT": "+48.2439112", "INTPTLON": "-118.8719074", "STGEOMETRY_AREA": 12744397331.6133, "STGEOMETRY_LEN": 633822.29200718994 }, "geometry": { "type": "Point", "coordinates": [ 7379213.136380970478058, 5455412.900173395872116, 0.0 ] } },
{ "type": "Feature", "properties": { "OBJECTID": 13, "FID_USMINPoints_Project": 443, "Name": "Rocky Boy, Rocky Boy Stock", "FolderPath": "USMIN deposit database", "SymbolID": 3, "AltMode": -1, "Base": 0.0, "Snippet": "Showing", "PopupInfo": "<a href=\"https://mrdata.usgs.gov/deposit/html/REE-Mo00655\">Rocky Boy, Rocky Boy Stock</a>: Showing<table><tr><td>Feature group</td><td>Mineral Occurrence</td></tr><tr><td>Location</td><td>Hill, MT</td></tr><tr><td>Commodity</td><td>rare earth elements</td></tr></table>", "HasLabel": -1, "LabelID": 0, "FID_L0Federally_Recognized_Tribal_Lands": 173, "AIANNH": "3205", "FSRFLG": "F", "AIANNHNS": "00767936", "AREALAND": 443930572.0, "ALANDHIST": 443943669.0, "AREAWATER": 452747.0, "AWATERHIST": 439653.0, "AIANNHCC": "D1", "EFFDATE": null, "ESTABDATE": null, "FUNCSTAT": "A", "GCFLG": null, "GEOID": "3205M", "LSADC": "86", "MTFCC": "G2100", "BASENAME": "Rocky Boy's", "NAME_1": "Rocky Boy's Reservation and Off-Reservation Trust Land", "ObjID": "25190109874036", "AIANNHCOMP": "M", "STATEFP1": "3063925", "STATEFP2": null, "STATEFP3": null, "UR": null, "VINTAGE": "90", "AIANNHFP1": "30-63925", "AIANNHFP2": null, "AIANNHFP3": null, "HU100": null, "POP100": null, "CENTLAT": "+48.2703610", "CENTLON": "-109.8235568", "INTPTLAT": "+48.2753818", "INTPTLON": "-109.8270553", "STGEOMETRY_AREA": 1002269462.32201, "STGEOMETRY_LEN": 489841.05068859999 }, "geometry": { "type": "Point", "coordinates": [ 9555201.333608463406563, 5704442.723963141441345, 0.0 ] } },
{ "type": "Feature", "properties": { "OBJECTID": 14, "FID_USMINPoints_Project": 710, "Name": "Rocky Boy, Rocky Boy Stock", "FolderPath": "USMIN deposit database", "SymbolID": 3, "AltMode": -1, "Base": 0.0, "Snippet": "Showing", "PopupInfo": "<a href=\"https://mrdata.usgs.gov/deposit/html/REE-Mo00655\">Rocky Boy, Rocky Boy Stock</a>: Showing<table><tr><td>Feature group</td><td>Mineral Occurrence</td></tr><tr><td>Location</td><td>Hill, MT</td></tr><tr><td>Commodity</td><td>rare earth elements</td></tr></table>", "HasLabel": -1, "LabelID": 0, "FID_L0Federally_Recognized_Tribal_Lands": 173, "AIANNH": "3205", "FSRFLG": "F", "AIANNHNS": "00767936", "AREALAND": 443930572.0, "ALANDHIST": 443943669.0, "AREAWATER": 452747.0, "AWATERHIST": 439653.0, "AIANNHCC": "D1", "EFFDATE": null, "ESTABDATE": null, "FUNCSTAT": "A", "GCFLG": null, "GEOID": "3205M", "LSADC": "86", "MTFCC": "G2100", "BASENAME": "Rocky Boy's", "NAME_1": "Rocky Boy's Reservation and Off-Reservation Trust Land", "ObjID": "25190109874036", "AIANNHCOMP": "M", "STATEFP1": "3063925", "STATEFP2": null, "STATEFP3": null, "UR": null, "VINTAGE": "90", "AIANNHFP1": "30-63925", "AIANNHFP2": null, "AIANNHFP3": null, "HU100": null, "POP100": null, "CENTLAT": "+48.2703610", "CENTLON": "-109.8235568", "INTPTLAT": "+48.2753818", "INTPTLON": "-109.8270553", "STGEOMETRY_AREA": 1002269462.32201, "STGEOMETRY_LEN": 489841.05068859999 }, "geometry": { "type": "Point", "coordinates": [ 9555201.333608463406563, 5704442.723963141441345, 0.0 ] } },
{ "type": "Feature", "properties": { "OBJECTID": 15, "FID_USMINPoints_Project": 1110, "Name": "Valdez Creek District", "FolderPath": "USMIN deposit database", "SymbolID": 1, "AltMode": -1, "Base": 0.0, "Snippet": "Mining District", "PopupInfo": "<a href=\"https://mrdata.usgs.gov/deposit/html/Sn-Mr00083\">Valdez Creek District</a>: Mining District<table><tr><td>Feature group</td><td>Mineral Region</td></tr><tr><td>Location</td><td>Denali; Southeast Fairbanks; Valdez-Cordova; Matanuska-Susitna, AK</td></tr><tr><td>Commodity</td><td>tin; silver; gold; tungsten; copper; lead; zinc</td></tr></table>", "HasLabel": -1, "LabelID": 0, "FID_L0Federally_Recognized_Tribal_Lands": 446, "AIANNH": "6290", "FSRFLG": "F", "AIANNHNS": "02418816", "AREALAND": 15429532250.0, "ALANDHIST": 15429532247.0, "AREAWATER": 157255193.0, "AWATERHIST": 157255193.0, "AIANNHCC": "E1", "EFFDATE": null, "ESTABDATE": null, "FUNCSTAT": "S", "GCFLG": null, "GEOID": "6290R", "LSADC": "79", "MTFCC": "G2130", "BASENAME": "Chickaloon", "NAME_1": "Chickaloon ANVSA", "ObjID": "2249093609926", "AIANNHCOMP": "R", "STATEFP1": "0213345", "STATEFP2": null, "STATEFP3": null, "UR": null, "VINTAGE": "90", "AIANNHFP1": "02-13345", "AIANNHFP2": null, "AIANNHFP3": null, "HU100": null, "POP100": null, "CENTLAT": "+62.2399668", "CENTLON": "-148.3860004", "INTPTLAT": "+62.2514458", "INTPTLON": "-148.0094628", "STGEOMETRY_AREA": 71620960760.508896, "STGEOMETRY_LEN": 1353880.2700505201 }, "geometry": { "type": "Point", "coordinates": [ 1690038.565933972597122, 11823688.048112064599991, 0.0 ] } },
{ "type": "Feature", "properties": { "OBJECTID": 16, "FID_USMINPoints_Project": 1231, "Name": "Valdez Creek District", "FolderPath": "USMIN deposit database", "SymbolID": 1, "AltMode": -1, "Base": 0.0, "Snippet": "Mining District", "PopupInfo": "<a href=\"https://mrdata.usgs.gov/deposit/html/Sn-Mr00083\">Valdez Creek District</a>: Mining District<table><tr><td>Feature group</td><td>Mineral Region</td></tr><tr><td>Location</td><td>Denali; Southeast Fairbanks; Valdez-Cordova; Matanuska-Susitna, AK</td></tr><tr><td>Commodity</td><td>tin; silver; gold; tungsten; copper; lead; zinc</td></tr></table>", "HasLabel": -1, "LabelID": 0, "FID_L0Federally_Recognized_Tribal_Lands": 446, "AIANNH": "6290", "FSRFLG": "F", "AIANNHNS": "02418816", "AREALAND": 15429532250.0, "ALANDHIST": 15429532247.0, "AREAWATER": 157255193.0, "AWATERHIST": 157255193.0, "AIANNHCC": "E1", "EFFDATE": null, "ESTABDATE": null, "FUNCSTAT": "S", "GCFLG": null, "GEOID": "6290R", "LSADC": "79", "MTFCC": "G2130", "BASENAME": "Chickaloon", "NAME_1": "Chickaloon ANVSA", "ObjID": "2249093609926", "AIANNHCOMP": "R", "STATEFP1": "0213345", "STATEFP2": null, "STATEFP3": null, "UR": null, "VINTAGE": "90", "AIANNHFP1": "02-13345", "AIANNHFP2": null, "AIANNHFP3": null, "HU100": null, "POP100": null, "CENTLAT": "+62.2399668", "CENTLON": "-148.3860004", "INTPTLAT": "+62.2514458", "INTPTLON": "-148.0094628", "STGEOMETRY_AREA": 71620960760.508896, "STGEOMETRY_LEN": 1353880.2700505201 }, "geometry": { "type": "Point", "coordinates": [ 1690038.565933972597122, 11823688.048112064599991, 0.0 ] } },
{ "type": "Feature", "properties": { "OBJECTID": 17, "FID_USMINPoints_Project": 319, "Name": "Unnamed (northeast of lower Sue Creek), New York Creek Placer Mine", "FolderPath": "USMIN deposit database", "SymbolID": 0, "AltMode": -1, "Base": 0.0, "Snippet": "Placer Mine", "PopupInfo": "<a href=\"https://mrdata.usgs.gov/deposit/html/REE-Mf00557\">Unnamed (northeast of lower Sue Creek), New York Creek Placer Mine</a>: Placer Mine<table><tr><td>Feature group</td><td>Mine Feature</td></tr><tr><td>Location</td><td>Bethel, AK</td></tr><tr><td>Commodity</td><td>gold; silver</td></tr></table>", "HasLabel": -1, "LabelID": 0, "FID_L0Federally_Recognized_Tribal_Lands": 413, "AIANNH": "7005", "FSRFLG": "F", "AIANNHNS": "02418727", "AREALAND": 65277129.0, "ALANDHIST": 65277129.0, "AREAWATER": 8285836.0, "AWATERHIST": 8285836.0, "AIANNHCC": "E1", "EFFDATE": null, "ESTABDATE": null, "FUNCSTAT": "S", "GCFLG": null, "GEOID": "7005R", "LSADC": "79", "MTFCC": "G2130", "BASENAME": "Napaimute", "NAME_1": "Napaimute ANVSA", "ObjID": "2249093609682", "AIANNHCOMP": "R", "STATEFP1": "0252320", "STATEFP2": null, "STATEFP3": null, "UR": null, "VINTAGE": "90", "AIANNHFP1": "02-52320", "AIANNHFP2": null, "AIANNHFP3": null, "HU100": null, "POP100": null, "CENTLAT": "+61.5572768", "CENTLON": "-158.7012661", "INTPTLAT": "+61.5571101", "INTPTLON": "-158.7030374", "STGEOMETRY_AREA": 323091851.46971202, "STGEOMETRY_LEN": 76515.274003800005 }, "geometry": { "type": "Point", "coordinates": [ -235851.866726279258728, 11991736.416410967707634, 0.0 ] } },
{ "type": "Feature", "properties": { "OBJECTID": 18, "FID_USMINPoints_Project": 586, "Name": "Unnamed (northeast of lower Sue Creek), New York Creek Placer Mine", "FolderPath": "USMIN deposit database", "SymbolID": 0, "AltMode": -1, "Base": 0.0, "Snippet": "Placer Mine", "PopupInfo": "<a href=\"https://mrdata.usgs.gov/deposit/html/REE-Mf00557\">Unnamed (northeast of lower Sue Creek), New York Creek Placer Mine</a>: Placer Mine<table><tr><td>Feature group</td><td>Mine Feature</td></tr><tr><td>Location</td><td>Bethel, AK</td></tr><tr><td>Commodity</td><td>gold; silver</td></tr></table>", "HasLabel": -1, "LabelID": 0, "FID_L0Federally_Recognized_Tribal_Lands": 413, "AIANNH": "7005", "FSRFLG": "F", "AIANNHNS": "02418727", "AREALAND": 65277129.0, "ALANDHIST": 65277129.0, "AREAWATER": 8285836.0, "AWATERHIST": 8285836.0, "AIANNHCC": "E1", "EFFDATE": null, "ESTABDATE": null, "FUNCSTAT": "S", "GCFLG": null, "GEOID": "7005R", "LSADC": "79", "MTFCC": "G2130", "BASENAME": "Napaimute", "NAME_1": "Napaimute ANVSA", "ObjID": "2249093609682", "AIANNHCOMP": "R", "STATEFP1": "0252320", "STATEFP2": null, "STATEFP3": null, "UR": null, "VINTAGE": "90", "AIANNHFP1": "02-52320", "AIANNHFP2": null, "AIANNHFP3": null, "HU100": null, "POP100": null, "CENTLAT": "+61.5572768", "CENTLON": "-158.7012661", "INTPTLAT": "+61.5571101", "INTPTLON": "-158.7030374", "STGEOMETRY_AREA": 323091851.46971202, "STGEOMETRY_LEN": 76515.274003800005 }, "geometry": { "type": "Point", "coordinates": [ -235851.866726279258728, 11991736.416410967707634, 0.0 ] } },
{ "type": "Feature", "properties": { "OBJECTID": 19, "FID_USMINPoints_Project": 298, "Name": "Karshner Creek, Karshner Creek Showing", "FolderPath": "USMIN deposit database", "SymbolID": 3, "AltMode": -1, "Base": 0.0, "Snippet": "Showing", "PopupInfo": "<a href=\"https://mrdata.usgs.gov/deposit/html/REE-Mo00613\">Karshner Creek, Karshner Creek Showing</a>: Showing<table><tr><td>Feature group</td><td>Mineral Occurrence</td></tr><tr><td>Location</td><td>Yukon-Koyukuk, AK</td></tr><tr><td>Commodity</td><td>rare earth elements; titanium; zirconium</td></tr></table>", "HasLabel": -1, "LabelID": 0, "FID_L0Federally_Recognized_Tribal_Lands": 474, "AIANNH": "6900", "FSRFLG": "F", "AIANNHNS": "02418694", "AREALAND": 38991601.0, "ALANDHIST": 38991600.0, "AREAWATER": 0.0, "AWATERHIST": 0.0, "AIANNHCC": "E1", "EFFDATE": null, "ESTABDATE": null, "FUNCSTAT": "S", "GCFLG": null, "GEOID": "6900R", "LSADC": "79", "MTFCC": "G2130", "BASENAME": "Manley Hot Springs", "NAME_1": "Manley Hot Springs ANVSA", "ObjID": "22490758926799", "AIANNHCOMP": "R", "STATEFP1": "0246785", "STATEFP2": null, "STATEFP3": null, "UR": null, "VINTAGE": "90", "AIANNHFP1": "02-46785", "AIANNHFP2": null, "AIANNHFP3": null, "HU100": null, "POP100": null, "CENTLAT": "+65.0058624", "CENTLON": "-150.6146928", "INTPTLAT": "+65.0058624", "INTPTLON": "-150.6146928", "STGEOMETRY_AREA": 217465553.877013, "STGEOMETRY_LEN": 72427.329228910006 }, "geometry": { "type": "Point", "coordinates": [ 1619363.582284227013588, 12787229.357902228832245, 0.0 ] } },
{ "type": "Feature", "properties": { "OBJECTID": 20, "FID_USMINPoints_Project": 565, "Name": "Karshner Creek, Karshner Creek Showing", "FolderPath": "USMIN deposit database", "SymbolID": 3, "AltMode": -1, "Base": 0.0, "Snippet": "Showing", "PopupInfo": "<a href=\"https://mrdata.usgs.gov/deposit/html/REE-Mo00613\">Karshner Creek, Karshner Creek Showing</a>: Showing<table><tr><td>Feature group</td><td>Mineral Occurrence</td></tr><tr><td>Location</td><td>Yukon-Koyukuk, AK</td></tr><tr><td>Commodity</td><td>rare earth elements; titanium; zirconium</td></tr></table>", "HasLabel": -1, "LabelID": 0, "FID_L0Federally_Recognized_Tribal_Lands": 474, "AIANNH": "6900", "FSRFLG": "F", "AIANNHNS": "02418694", "AREALAND": 38991601.0, "ALANDHIST": 38991600.0, "AREAWATER": 0.0, "AWATERHIST": 0.0, "AIANNHCC": "E1", "EFFDATE": null, "ESTABDATE": null, "FUNCSTAT": "S", "GCFLG": null, "GEOID": "6900R", "LSADC": "79", "MTFCC": "G2130", "BASENAME": "Manley Hot Springs", "NAME_1": "Manley Hot Springs ANVSA", "ObjID": "22490758926799", "AIANNHCOMP": "R", "STATEFP1": "0246785", "STATEFP2": null, "STATEFP3": null, "UR": null, "VINTAGE": "90", "AIANNHFP1": "02-46785", "AIANNHFP2": null, "AIANNHFP3": null, "HU100": null, "POP100": null, "CENTLAT": "+65.0058624", "CENTLON": "-150.6146928", "INTPTLAT": "+65.0058624", "INTPTLON": "-150.6146928", "STGEOMETRY_AREA": 217465553.877013, "STGEOMETRY_LEN": 72427.329228910006 }, "geometry": { "type": "Point", "coordinates": [ 1619363.582284227013588, 12787229.357902228832245, 0.0 ] } },
{ "type": "Feature", "properties": { "OBJECTID": 21, "FID_USMINPoints_Project": 300, "Name": "Kwiniuk River, Kwiniuk River Showing", "FolderPath": "USMIN deposit database", "SymbolID": 3, "AltMode": -1, "Base": 0.0, "Snippet": "Showing", "PopupInfo": "<a href=\"https://mrdata.usgs.gov/deposit/html/REE-Mo00602\">Kwiniuk River, Kwiniuk River Showing</a>: Showing<table><tr><td>Feature group</td><td>Mineral Occurrence</td></tr><tr><td>Location</td><td>Nome, AK</td></tr><tr><td>Commodity</td><td>copper; rare earth elements; tungsten</td></tr></table>", "HasLabel": -1, "LabelID": 0, "FID_L0Federally_Recognized_Tribal_Lands": 429, "AIANNH": "6470", "FSRFLG": "F", "AIANNHNS": "02575181", "AREALAND": 795682736.0, "ALANDHIST": 795682735.0, "AREAWATER": 22721141.0, "AWATERHIST": 22721141.0, "AIANNHCC": "E1", "EFFDATE": null, "ESTABDATE": null, "FUNCSTAT": "S", "GCFLG": null, "GEOID": "6470R", "LSADC": "79", "MTFCC": "G2130", "BASENAME": "Elim", "NAME_1": "Elim ANVSA", "ObjID": "224903708046593", "AIANNHCOMP": "R", "STATEFP1": "0222255", "STATEFP2": null, "STATEFP3": null, "UR": null, "VINTAGE": "90", "AIANNHFP1": "02-22255", "AIANNHFP2": null, "AIANNHFP3": null, "HU100": null, "POP100": null, "CENTLAT": "+64.7471509", "CENTLON": "-162.1426186", "INTPTLAT": "+64.6771877", "INTPTLON": "-162.3238853", "STGEOMETRY_AREA": 4477610361.2371597, "STGEOMETRY_LEN": 340463.88007214997 }, "geometry": { "type": "Point", "coordinates": [ -339838.258162528276443, 13446759.739954307675362, 0.0 ] } },
{ "type": "Feature", "properties": { "OBJECTID": 22, "FID_USMINPoints_Project": 567, "Name": "Kwiniuk River, Kwiniuk River Showing", "FolderPath": "USMIN deposit database", "SymbolID": 3, "AltMode": -1, "Base": 0.0, "Snippet": "Showing", "PopupInfo": "<a href=\"https://mrdata.usgs.gov/deposit/html/REE-Mo00602\">Kwiniuk River, Kwiniuk River Showing</a>: Showing<table><tr><td>Feature group</td><td>Mineral Occurrence</td></tr><tr><td>Location</td><td>Nome, AK</td></tr><tr><td>Commodity</td><td>copper; rare earth elements; tungsten</td></tr></table>", "HasLabel": -1, "LabelID": 0, "FID_L0Federally_Recognized_Tribal_Lands": 429, "AIANNH": "6470", "FSRFLG": "F", "AIANNHNS": "02575181", "AREALAND": 795682736.0, "ALANDHIST": 795682735.0, "AREAWATER": 22721141.0, "AWATERHIST": 22721141.0, "AIANNHCC": "E1", "EFFDATE": null, "ESTABDATE": null, "FUNCSTAT": "S", "GCFLG": null, "GEOID": "6470R", "LSADC": "79", "MTFCC": "G2130", "BASENAME": "Elim", "NAME_1": "Elim ANVSA", "ObjID": "224903708046593", "AIANNHCOMP": "R", "STATEFP1": "0222255", "STATEFP2": null, "STATEFP3": null, "UR": null, "VINTAGE": "90", "AIANNHFP1": "02-22255", "AIANNHFP2": null, "AIANNHFP3": null, "HU100": null, "POP100": null, "CENTLAT": "+64.7471509", "CENTLON": "-162.1426186", "INTPTLAT": "+64.6771877", "INTPTLON": "-162.3238853", "STGEOMETRY_AREA": 4477610361.2371597, "STGEOMETRY_LEN": 340463.88007214997 }, "geometry": { "type": "Point", "coordinates": [ -339838.258162528276443, 13446759.739954307675362, 0.0 ] } }
]
}
